NORAD_CAT_ID,OBJECT_NAME,OBJECT_TYPE,EPOCH,MEAN_MOTION,ECCENTRICITY,INCLINATION,RA_OF_ASC_NODE,ARG_OF_PERICENTER,MEAN_ANOMALY,BSTAR,MEAN_MOTION_DOT,MEAN_MOTION_DDOT,TLE_LINE0,TLE_LINE1,TLE_LINE2,SEMIMAJOR_AXIS,PERIOD,APOGEE,PERIGEE,DECAYED
53964.0,STARLINK-4633,PAYLOAD,2023-09-07 17:36:34,15.08848743,0.0001186,53.2192,7.1818,96.3384,263.7743,8.2447e-05,1.025e-05,0.0,0 STARLINK-4633,1 53964U 22125A   23250.73373061  .00001025  00000-0  82447-4 0  9998,2 53964  53.2192   7.1818 0001186  96.3384 263.7743 15.08848743 51348,6917.854,95.437,540.539,538.898,0.0
53964.0,STARLINK-4633,PAYLOAD,2023-09-08 01:33:30,15.08843738,0.0001189,53.2196,5.6948,90.3127,269.8001,5.9599e-05,6.61e-06,0.0,0 STARLINK-4633,1 53964U 22125A   23251.06493394  .00000661  00000-0  59599-4 0  9994,2 53964  53.2196   5.6948 0001189  90.3127 269.8001 15.08843738 51467,6917.869,95.437,540.556,538.911,0.0
53964.0,STARLINK-4633,PAYLOAD,2023-09-08 11:05:49,15.08839184,0.00015,53.2184,3.9099,96.1737,263.9426,9.7594e-06,-1.33e-06,0.0,0 STARLINK-4633,1 53964U 22125A   23251.46237891 -.00000133  00000-0  97594-5 0  9999,2 53964  53.2184   3.9099 0001500  96.1737 263.9426 15.08839184 51523,6917.883,95.438,540.786,538.71,0.0
53964.0,STARLINK-4633,PAYLOAD,2023-09-08 12:41:12,15.08843191,0.0001664,53.2183,3.6123,97.4207,262.6974,3.8691e-05,3.28e-06,0.0,0 STARLINK-4633,1 53964U 22125A   23251.52861573  .00000328  00000-0  38691-4 0  9993,2 53964  53.2183   3.6123 0001664  97.4207 262.6974 15.08843191 51464,6917.871,95.437,540.887,538.585,0.0
53964.0,STARLINK-4633,PAYLOAD,2023-09-08 17:27:21,15.08850514,0.0001207,53.219,2.7227,93.8498,266.2632,3.4631e-05,2.63e-06,0.0,0 STARLINK-4633,1 53964U 22125A   23251.72732953  .00000263  00000-0  34631-4 0  9992,2 53964  53.2190   2.7227 0001207  93.8498 266.2632 15.08850514 51561,6917.848,95.437,540.548,538.878,0.0
53964.0,STARLINK-4633,PAYLOAD,2023-09-09 10:56:37,15.08821615,0.0001274,53.2203,359.4531,86.1311,273.9827,0.00013496,1.86e-05,0.0,0 STARLINK-4633,1 53964U 22125A   23252.45598810  .00001860  00000-0  13496-3 0  9994,2 53964  53.2203 359.4531 0001274  86.1311 273.9827 15.08821615 51672,6917.937,95.439,540.683,538.92,0.0
53964.0,STARLINK-4633,PAYLOAD,2023-09-09 14:07:22,15.0883667,0.0001282,53.2189,358.8575,85.8678,274.246,8.0544e-05,9.94e-06,0.0,0 STARLINK-4633,1 53964U 22125A   23252.58846019  .00000994  00000-0  80544-4 0  9991,2 53964  53.2189 358.8575 0001282  85.8678 274.2460 15.08836670 51626,6917.891,95.438,540.642,538.869,0.0
53964.0,STARLINK-4633,PAYLOAD,2023-09-10 12:22:46,15.0884533,0.0001372,53.2195,354.695,89.9031,270.2119,0.00015129,2.121e-05,0.0,0 STARLINK-4633,1 53964U 22125A   23253.51581602  .00002121  00000-0  15129-3 0  9999,2 53964  53.2195 354.6950 0001372  89.9031 270.2119 15.08845330 51767,6917.864,95.437,540.678,538.78,0.0
53964.0,STARLINK-4633,PAYLOAD,2023-09-10 18:44:18,15.08855782,0.000137,53.2196,353.5053,93.0049,267.11,0.0002043,2.966e-05,0.0,0 STARLINK-4633,1 53964U 22125A   23253.78076771  .00002966  00000-0  20430-3 0  9992,2 53964  53.2196 353.5053 0001370  93.0049 267.1100 15.08855782 51872,6917.832,95.437,540.645,538.749,0.0
53964.0,STARLINK-4633,PAYLOAD,2023-09-11 10:38:10,15.08835177,0.0001403,53.2186,350.5313,88.3243,271.791,-2.4266e-05,-6.74e-06,0.0,0 STARLINK-4633,1 53964U 22125A   23254.44318242 -.00000674  00000-0 -24266-4 0  9996,2 53964  53.2186 350.5313 0001403  88.3243 271.7910 15.08835177 51974,6917.895,95.438,540.731,538.79,0.0
53964.0,STARLINK-4633,PAYLOAD,2023-09-11 13:48:57,15.08839565,0.0001306,53.2187,349.9377,85.6132,274.501,6.0232e-05,6.71e-06,0.0,0 STARLINK-4633,1 53964U 22125A   23254.57566079  .00000671  00000-0  60232-4 0  9991,2 53964  53.2187 349.9377 0001306  85.6132 274.5010 15.08839565 51928,6917.882,95.438,540.65,538.843,0.0
53964.0,STARLINK-4633,PAYLOAD,2023-09-11 16:59:43,15.08844021,0.0001328,53.2188,349.3423,83.9712,276.1432,0.00012568,1.713e-05,0.0,0 STARLINK-4633,1 53964U 22125A   23254.70813925  .00001713  00000-0  12568-3 0  9997,2 53964  53.2188 349.3423 0001328  83.9712 276.1432 15.08844021 52014,6917.868,95.437,540.652,538.814,0.0
53964.0,STARLINK-4633,PAYLOAD,2023-09-12 13:39:43,15.08849293,0.0001434,53.2182,345.477,74.1662,285.9488,0.00025262,3.736e-05,0.0,0 STARLINK-4633,1 53964U 22125A   23255.56925813  .00003736  00000-0  25262-3 0  9994,2 53964  53.2182 345.4770 0001434  74.1662 285.9488 15.08849293 52075,6917.852,95.437,540.709,538.725,0.0
53964.0,STARLINK-4633,PAYLOAD,2023-09-12 15:15:06,15.08856267,0.0001442,53.2185,345.1798,77.821,282.2944,0.00033575,5.062e-05,0.0,0 STARLINK-4633,1 53964U 22125A   23255.63549520  .00005062  00000-0  33575-3 0  9999,2 53964  53.2185 345.1798 0001442  77.8210 282.2944 15.08856267 52080,6917.831,95.437,540.693,538.698,0.0
53964.0,STARLINK-4633,PAYLOAD,2023-09-12 23:12:02,15.08845806,0.0001313,53.2181,343.6925,85.8498,274.2644,0.00031687,4.759e-05,0.0,0 STARLINK-4633,1 53964U 22125A   23255.96669844  .00004759  00000-0  31687-3 0  9991,2 53964  53.2181 343.6925 0001313  85.8498 274.2644 15.08845806 52204,6917.863,95.437,540.636,538.819,0.0
53964.0,STARLINK-4633,PAYLOAD,2023-09-13 13:30:30,15.0885938,0.0001406,53.2181,341.0165,80.5104,279.6047,0.0004415,6.749e-05,0.0,0 STARLINK-4633,1 53964U 22125A   23256.56285164  .00006749  00000-0  44150-3 0  9997,2 53964  53.2181 341.0165 0001406  80.5104 279.6047 15.08859380 52221,6917.821,95.436,540.659,538.714,0.0
53964.0,STARLINK-4633,PAYLOAD,2023-09-13 18:16:39,15.0886232,0.0001418,53.2181,340.1247,81.4975,278.6178,0.00045824,7.017e-05,0.0,0 STARLINK-4633,1 53964U 22125A   23256.76156883  .00007017  00000-0  45824-3 0  9992,2 53964  53.2181 340.1247 0001418  81.4975 278.6178 15.08862320 52256,6917.812,95.436,540.658,538.696,0.0
53964.0,STARLINK-4633,PAYLOAD,2023-09-13 23:02:49,15.08842275,0.0001384,53.218,339.2329,86.9077,273.2074,3.5929e-05,2.84e-06,0.0,0 STARLINK-4633,1 53964U 22125A   23256.96029652  .00000284  00000-0  35929-4 0  9992,2 53964  53.2180 339.2329 0001384  86.9077 273.2074 15.08842275 52354,6917.873,95.437,540.696,538.781,0.0
53964.0,STARLINK-4633,PAYLOAD,2023-09-14 10:10:32,15.08807112,9.27e-05,53.2176,337.1525,96.4097,263.7001,-0.00069938,-0.00011391,0.0,0 STARLINK-4633,1 53964U 22125A   23257.42398789 -.00011391  00000-0 -69938-3 0  9993,2 53964  53.2176 337.1525 0000927  96.4097 263.7001 15.08807112 52427,6917.981,95.44,540.487,539.205,0.0
53964.0,STARLINK-4633,PAYLOAD,2023-09-14 11:45:55,15.08816603,0.0001355,53.2177,336.8547,89.9919,270.1228,-0.00039563,-6.575e-05,0.0,0 STARLINK-4633,1 53964U 22125A   23257.49023126 -.00006575  00000-0 -39563-3 0  9999,2 53964  53.2177 336.8547 0001355  89.9919 270.1228 15.08816603 52365,6917.952,95.439,540.754,538.88,0.0
53964.0,STARLINK-4633,PAYLOAD,2023-09-14 22:53:38,15.08817225,0.0001375,53.2185,334.7707,92.9145,267.2004,-0.00017776,-3.114e-05,0.0,0 STARLINK-4633,1 53964U 22125A   23257.95391692 -.00003114  00000-0 -17776-3 0  9994,2 53964  53.2185 334.7707 0001375  92.9145 267.2004 15.08817225 52502,6917.95,95.439,540.766,538.864,0.0
53964.0,STARLINK-4633,PAYLOAD,2023-09-15 10:01:20,15.0882875,0.0001362,53.2175,332.6902,99.6118,260.5028,0.00021184,3.084e-05,0.0,0 STARLINK-4633,1 53964U 22125A   23258.41760190  .00003084  00000-0  21184-3 0  9991,2 53964  53.2175 332.6902 0001362  99.6118 260.5028 15.08828750 52579,6917.915,95.438,540.722,538.838,0.0
53964.0,STARLINK-4633,PAYLOAD,2023-09-15 11:36:44,15.08826417,0.0001345,53.2178,332.3926,94.6714,265.4431,0.00035449,5.356e-05,0.0,0 STARLINK-4633,1 53964U 22125A   23258.48384461  .00005356  00000-0  35449-3 0  9994,2 53964  53.2178 332.3926 0001345  94.6714 265.4431 15.08826417 52517,6917.922,95.438,540.717,538.856,0.0
53964.0,STARLINK-4633,PAYLOAD,2023-09-16 09:52:07,15.08872592,0.0001289,53.2172,328.23,98.8293,261.2845,0.0013088,0.00020621,0.0,0 STARLINK-4633,1 53964U 22125A   23259.41119840  .00020621  00000-0  13088-2 0  9991,2 53964  53.2172 328.2300 0001289  98.8293 261.2845 15.08872592 52727,6917.781,95.435,540.537,538.754,0.0
53964.0,STARLINK-4633,PAYLOAD,2023-09-16 11:27:30,15.08871367,0.0001295,53.2174,327.9327,96.0503,264.0636,0.0011159,0.00017531,0.0,0 STARLINK-4633,1 53964U 22125A   23259.47743732  .00017531  00000-0  11159-2 0  9993,2 53964  53.2174 327.9327 0001295  96.0503 264.0636 15.08871367 52666,6917.785,95.436,540.545,538.754,0.0
53964.0,STARLINK-4633,PAYLOAD,2023-09-17 11:18:16,15.08866676,0.0001211,53.2173,323.4738,86.5352,273.5779,0.0020022,0.00031744,0.0,0 STARLINK-4633,1 53964U 22125A   23260.47102907  .00031744  00000-0  20022-2 0  9999,2 53964  53.2173 323.4738 0001211  86.5352 273.5779 15.08866676 52813,6917.799,95.436,540.502,538.826,0.0
53964.0,STARLINK-4633,PAYLOAD,2023-09-17 20:50:35,15.08846261,8.13e-05,53.217,321.6896,123.4053,236.7017,-0.00012874,-2.336e-05,0.0,0 STARLINK-4633,1 53964U 22125A   23260.86846282 -.00002336  00000-0 -12874-3 0  9997,2 53964  53.2170 321.6896 0000813 123.4053 236.7017 15.08846261 52949,6917.861,95.437,540.289,539.164,0.0
53964.0,STARLINK-4633,PAYLOAD,2023-09-18 11:09:03,15.08848763,0.000149,53.2179,319.0096,101.203,258.9129,0.00078261,0.00012192,0.0,0 STARLINK-4633,1 53964U 22125A   23261.46462512  .00012192  00000-0  78261-3 0  9995,2 53964  53.2179 319.0096 0001490 101.2030 258.9129 15.08848763 52963,6917.854,95.437,540.749,538.688,0.0
53964.0,STARLINK-4633,PAYLOAD,2023-09-18 14:19:49,15.08856612,0.0001403,53.2175,318.4159,89.7774,270.3379,0.0011562,0.00018169,0.0,0 STARLINK-4633,1 53964U 22125A   23261.59710412  .00018169  00000-0  11562-2 0  9994,2 53964  53.2175 318.4159 0001403  89.7774 270.3379 15.08856612 52980,6917.83,95.437,540.665,538.724,0.0
53964.0,STARLINK-4633,PAYLOAD,2023-09-19 09:24:27,15.08859481,0.0001458,53.2169,314.8483,96.0278,264.0881,0.00073692,0.00011466,0.0,0 STARLINK-4633,1 53964U 22125A   23262.39198046  .00011466  00000-0  73692-3 0  9992,2 53964  53.2169 314.8483 0001458  96.0278 264.0881 15.08859481 53170,6917.821,95.436,540.694,538.677,0.0
